#cP2021  6 21  0  0  0.00000000      96 ORBIT   JGS FIT  QSS
## 2163  86400.00000000   900.00000000 59386 0.0000000000000
+   29   G01G02G03G05G06G07G08G09G10G12G15G16G17G19G20G21G22
+        G24G25G26G27G29G30G31G32J01J02J03J07  0  0  0  0  0
+          0  0  0  0  0  0  0  0  0  0  0  0  0  0  0  0  0
+          0  0  0  0  0  0  0  0  0  0  0  0  0  0  0  0  0
+          0  0  0  0  0  0  0  0  0  0  0  0  0  0  0  0  0
++         2  3  2  2  3  2  2  2  2  2  2  2  3  3  2  2  2
++         2  2  3  2  2  2  3  3  5  5  5  9  0  0  0  0  0
++         0  0  0  0  0  0  0  0  0  0  0  0  0  0  0  0  0
++         0  0  0  0  0  0  0  0  0  0  0  0  0  0  0  0  0
++         0  0  0  0  0  0  0  0  0  0  0  0  0  0  0  0  0
%c M  cc QZS ccc cccc cccc cccc cccc ccccc ccccc ccccc ccccc
%c cc cc ccc ccc cccc cccc cccc cccc ccccc ccccc ccccc ccccc
%f  1.2500000  1.025000000  0.00000000000  0.000000000000000
%f  0.0000000  0.000000000  0.00000000000  0.000000000000000
%i    0    0    0    0      0      0      0      0         0
%i    0    0    0    0      0      0      0      0         0
/* PROGRAM: POCSEL v.785, DATE: 2021/06/24 05:12:45 UTC     
/* Comment line1                                            
/* Comment line2                                            
/*                                                          
*  2021  6 21 12 45  0.00000000
PG01  13964.918754 -22363.274169    199.818871    651.674934  6  4  5 159       
PG02 -17373.849570   5576.353928 -18671.436814   -614.027553  5  7  5 159       
PG03  14208.087469 -12520.202642 -18663.021523   -198.229063  6  5  4 159       
PG05 -24560.011370   6184.290629   8151.015503    -45.604655  4  6  5 159       
PG06 -12842.991843  -7120.272611 -22077.882375     29.719758  6  7  4 159       
PG07   3337.992822 -22941.756725  12855.643367    183.802879  5  4  4 159       
PG08  12138.055484  -9048.543307  21794.288396    -25.932957  4  4  4 159       
PG09  -5036.327380 -23847.503889 -10587.702906   -352.167428  6  4  5 159       
PG10  17060.985021  11826.584197  16838.917960   -146.746834  5  5  4 159       
PG12 -16055.869491  11011.034467 -18256.405011    -58.026557  6  6  5 159       
PG15 -11508.652488  10841.123539  20953.840614   -140.859028  4  5  4 159       
PG16  26549.913763    562.080620   3427.683828   -344.804974  3  6  6 159       
PG17 -13115.441589 -22830.046550  -3044.292491    461.941027  6  5  6 159       
PG19 -16251.463641 -17325.592725 -12300.241776     16.276051  5  6  6 159       
PG20 -25190.064190   6477.175603   4405.115683    520.948234  4  6  5 159       
PG21  16753.886116 -18267.877551   9510.240047    126.457247  5  5  4 159       
PG22  21488.800580 -10196.952236 -11427.616355   -582.893378  5  6  5 159       
PG24 -15179.896813  20748.556420   5531.701707    142.398817  5  5  4 159       
PG25  -3036.805654  15192.781839 -21816.055860    159.865807  6  5  4 159       
PG26  25328.973736   4560.029231  -7170.970352    101.161542  4  6  6 159       
PG27  17105.662783   2894.077672  20037.710583   -150.727756  3  5  4 159       
PG29   2532.745033  23801.141158 -11503.704840   -367.761692  6  4  5 159       
PG30  -7335.281112 -15858.554225  20007.099382   -441.667142  5  4  4 159       
PG31  15075.922806   4611.081801 -21506.982232   -124.315313  6  7  4 159       
PG32  16031.313391  20516.430926  -5575.792491     17.636375  6  6  6 159       
PJ01 -27440.787047  20537.057796  29613.281393   -400.048919 13 14 11 159       
PJ02 -35403.315456  18098.683624  -9534.633935     -0.350307 12 14 11 159       
PJ03 -19255.667582  29601.385007 -18506.506616     -8.717547 13 12 10 159       
PJ07 -25410.530424  33655.140683      7.929109     -0.028553 28 26 13 159       
*  2021  6 21 13  0  0.00000000
PG01  14040.770052 -22065.699304   3115.293624    651.663954  5  4  5 159       
PG02 -16495.543238   3411.622623 -19901.044895   -614.030316  5  7  5 159       
PG03  16235.688965 -12410.756139 -16990.066422   -198.239190  6  5  5 159       
PG05 -25364.965111   5982.570700   5457.244147    -45.606654  4  6  5 159       
PG06 -11596.449578  -9315.756859 -21945.524603     29.723646  7  7  5 159       
PG07   4210.554943 -23942.959520  10440.427360    183.811199  5  4  4 159       
PG08  13465.237334  -6933.960751  21816.972232    -25.934593  3  5  4 159       
PG09  -4131.421226 -22829.645582 -12970.444033   -352.169503  6  5  5 159       
PG10  15071.658590  11978.328223  18531.508560   -146.754080  5  5  4 159       
PG12 -17989.904077  10764.134528 -16477.735738    -58.031829  6  6  5 159       
PG15 -13041.077053   8877.092468  21011.200098   -140.857189  4  5  4 159       
PG16  26788.442276    765.090208    585.352125   -344.810953  4  6  6 159       
PG17 -13045.406204 -23124.582766   -154.496533    461.945771  6  5  6 159       
PG19 -16618.368367 -18498.714398  -9799.097202     16.280093  5  6  6 159       
PG20 -25590.398607   6197.822603   1603.890617    520.947664  4  6  5 159       
PG21  16492.532434 -17115.314499  12014.646874    126.459171  5  5  4 159       
PG22  22716.631480 -10030.433261  -8956.952258   -582.885100  5  6  5 159       
PG24 -15140.415727  19853.365758   8205.424462    142.413864  5  5  4 159       
PG25  -5453.071245  15180.115375 -21319.796685    159.871581  7  5  5 159       
PG26  24389.650517   4879.222023  -9746.900812    101.165362  5  6  6 159       
PG27  18178.207196   4859.935724  18712.425895   -150.733663  3  5  5 159       
PG29   1745.326208  22581.216195 -13879.568543   -367.767463  6  4  5 159       
PG30  -6077.479691 -17697.872896  18826.945049   -441.671700  5  4  4 159       
PG31  13828.122734   6726.084250 -21746.081962   -124.317503  6  7  5 159       
PG32  16071.265072  21064.492420  -2791.085097     17.634580  6  6  6 159       
PJ01 -27841.450490  20517.326924  29178.641973   -400.055900 13 14 11 159       
PJ02 -35701.777073  18799.888507  -7758.891381     -0.350942 12 14 11 159       
PJ03 -18993.655358  28774.285409 -19731.332739     -8.718969 13 12 10 159       
PJ07 -25410.195925  33655.957965      9.244750     -0.029120 28 26 13 159       
*  2021  6 21 13 15  0.00000000
PG01  13987.325364 -21474.646177   5975.767327    651.653381  5  5  4 159       
PG02 -15682.793235   1088.338029 -20768.696701   -614.033046  5  7  5 159       
PG03  18062.150073 -12394.559224 -15025.263718   -198.248915  6  5  5 159       
PG05 -25871.067573   5790.414699   2670.220845    -45.607767  4  6  6 159       
PG06 -10489.707472 -11544.611395 -21433.491245     29.727862  7  7  5 159       
PG07   4910.059807 -24733.087486   7843.471997    183.819504  5  5  4 159       
PG08  14890.315052  -4910.605413  21464.204439    -25.935352  3  5  5 159       
PG09  -3028.788189 -21649.441301 -15130.464365   -352.171165  6  5  5 159       
PG10  12920.081718  12251.090216  19910.937421   -146.760878  5  5  4 159       
PG12 -19720.607113  10621.125419 -14418.839246    -58.036814  5  6  5 159       
PG15 -14650.032109   6999.722704  20695.130339   -140.854703  4  5  5 159       
PG16  26718.451103    947.501231  -2266.804118   -344.816358  5  6  6 159       
PG17 -12826.703901 -23138.674214   2738.005402    461.951127  6  5  5 159       
PG19 -16911.782036 -19395.196419  -7132.472652     16.284752  6  6  6 159       
PG20 -25690.670631   5869.020066  -1225.513879    520.947536  4  6  6 159       
PG21  16188.602683 -15706.638317  14314.016379    126.461630  4  5  4 159       
PG22  23664.749267  -9874.040423  -6329.277267   -582.876433  5  6  5 159       
PG24 -15032.692958  18680.832265  10733.381406    142.429284  5  6  4 159       
PG25  -7794.321696  15288.976516 -20463.784751    159.877607  7  5  5 159       
PG26  23189.347905   5277.392132 -12157.957165    101.169570  5  6  6 159       
PG27  19259.917638   6621.196625  17064.286316   -150.739167  4  5  5 159       
PG29    763.450928  21185.759364 -16016.653768   -367.773080  6  4  5 159       
PG30  -4977.824301 -19462.799445  17322.250198   -441.675951  5  4  4 159       
PG31  12686.242582   8912.126844 -21614.081115   -124.319443  6  7  5 159       
PG32  15960.593112  21348.150110     41.234762     17.633134  6  6  5 159       
PJ01 -28262.968109  20568.533811  28642.334006   -400.062497 13 14 11 159       
PJ02 -35893.977334  19526.789254  -5947.027631     -0.351110 12 14 11 159       
PJ03 -18827.764480  27894.800327 -20854.566251     -8.720045 13 12 10 159       
PJ07 -25409.807022  33656.800245     10.516788     -0.029213 28 26 13 159       
EOF
